[{"OBJECT_NAME":"STARLINK-32366","OBJECT_ID":"2024-184V","EPOCH":"2026-03-09T04:03:37.434528","MEAN_MOTION":15.30213666,"ECCENTRICITY":0.00013544,"INCLINATION":53.1624,"RA_OF_ASC_NODE":16.6139,"ARG_OF_PERICENTER":137.4615,"MEAN_ANOMALY":222.6491,"EPHEMERIS_TYPE":0,"CLASSIFICATION_TYPE":"U","NORAD_CAT_ID":61551,"ELEMENT_SET_NO":999,"REV_AT_EPOCH":7842,"BSTAR":-0.00016550885,"MEAN_MOTION_DOT":-5.26e-5,"MEAN_MOTION_DDOT":0},{"OBJECT_NAME":"TRANSPORTER-1 OBJECT AA","OBJECT_ID":"2021-006AA","EPOCH":"2026-03-09T22:58:14.761920","MEAN_MOTION":15.29982294,"ECCENTRICITY":0.00086604,"INCLINATION":97.2381,"RA_OF_ASC_NODE":112.457,"ARG_OF_PERICENTER":185.709,"MEAN_ANOMALY":174.4054,"EPHEMERIS_TYPE":0,"CLASSIFICATION_TYPE":"U","NORAD_CAT_ID":47437,"ELEMENT_SET_NO":999,"REV_AT_EPOCH":28414,"BSTAR":0.0002197941,"MEAN_MOTION_DOT":6.312e-5,"MEAN_MOTION_DDOT":0}]
